0 SL-8 DEB
1 01591U 65073H   13282.28145963  .00000078  00000-0  11961-2 0   739
2 01591 056.0579 239.2056 0162473 289.2985 217.3271 12.41531758173352
0 SL-8 DEB
1 01591U 65073H   13284.29579299  .00000062  00000-0  10836-2 0   749
2 01591 056.0582 233.8529 0162302 292.0870 220.3032 12.41532842173609
0 SL-8 DEB
1 01591U 65073H   13286.31058581  .00000124  00000-0  15138-2 0   750
2 01591 056.0583 228.4990 0162199 294.8401 225.3831 12.41534235173853
0 SL-8 DEB
1 01591U 65073H   13288.94802648  .00000220  00000-0  21889-2 0   760
2 01591 056.0583 221.4907 0162068 298.4452 133.3848 12.41535720174188
0 SL-8 DEB
1 01591U 65073H   13291.22166688  .00000218  00000-0  21779-2 0   778
2 01591 056.0580 215.4491 0161929 301.5671 215.3826 12.41537401174466
0 SL-8 DEB
1 01591U 65073H   13293.23528038  .00000220  00000-0  21878-2 0   786
2 01591 056.0583 210.0984 0161837 304.3006 215.2351 12.41538559174713
0 SL-8 DEB
1 01591U 65073H   13295.25057001  .00000151  00000-0  17070-2 0   790
2 01591 056.0576 204.7434 0161752 307.0592 222.5625 12.41539769174967
